GPS BIIR-2  (PRN 13)    
1 24876U 97035A   16058.41979682  .00000035  00000-0  00000+0 0  9994
2 24876  55.6969 245.8597 0044353 114.8856 245.5743  2.00562661136289
GPS BIIR-3  (PRN 11)    
1 25933U 99055A   16058.48978928 -.00000026  00000-0  00000+0 0  9993
2 25933  51.3233  98.5265 0159816  86.1459 249.5894  2.00565182120103
GPS BIIR-4  (PRN 20)    
1 26360U 00025A   16058.38486565  .00000006  00000-0  00000+0 0  9994
2 26360  53.0713 174.7338 0046242  76.0263 287.0492  2.00559990115797
GPS BIIR-5  (PRN 28)    
1 26407U 00040A   16058.32906384 -.00000074  00000-0  00000+0 0  9999
2 26407  56.6988   3.6902 0201540 267.0799 332.7524  2.00569928114468
GPS BIIR-6  (PRN 14)    
1 26605U 00071A   16058.56100657  .00000037  00000-0  00000+0 0  9996
2 26605  55.2666 243.7650 0085493 248.7287  92.6956  2.00557064112072
GPS BIIR-7  (PRN 18)    
1 26690U 01004A   16058.49982022  .00000008  00000-0  00000+0 0  9991
2 26690  53.0000 177.7053 0169445 250.8442 141.8288  2.00564029110470
GPS BIIR-8  (PRN 16)    
1 27663U 03005A   16058.12457105 -.00000074  00000-0  00000+0 0  9998
2 27663  56.7743   3.4087 0085308  17.5997 198.1158  2.00559564 95825
GPS BIIR-9  (PRN 21)    
1 27704U 03010A   16058.49457760 -.00000018  00000-0  00000+0 0  9995
2 27704  53.6130 117.9876 0234033 255.6641 188.0654  2.00564610 94631
GPS BIIR-10 (PRN 22)    
1 28129U 03058A   16058.06883552  .00000007  00000-0  00000+0 0  9991
2 28129  52.8771 177.7670 0079074 245.1189 114.0434  2.00398673 89334
GPS BIIR-11 (PRN 19)    
1 28190U 04009A   16057.13543786 -.00000034  00000-0  00000+0 0  9996
2 28190  55.7230  64.8504 0111079  38.2372 329.6815  2.00386036 87484
GPS BIIR-12 (PRN 23)    
1 28361U 04023A   16058.52930619  .00000036  00000-0  00000+0 0  9992
2 28361  54.2350 239.3654 0106467 211.5198 359.7868  2.00557875 85596
GPS BIIR-13 (PRN 02)    
1 28474U 04045A   16058.39012350 -.00000017  00000-0  00000+0 0  9999
2 28474  54.0043 117.2686 0156637 236.7741 237.4414  2.00556792 82957
GPS BIIRM-1 (PRN 17)    
1 28874U 05038A   16058.34497345 -.00000030  00000-0  00000+0 0  9997
2 28874  55.8911  61.9940 0112056 248.9552 300.6338  2.00567173 76354
GPS BIIRM-2 (PRN 31)    
1 29486U 06042A   16058.38298561 -.00000037  00000-0  00000+0 0  9993
2 29486  55.7048 301.2920 0084123 334.2398 163.7954  2.00560686 69077
GPS BIIRM-3 (PRN 12)    
1 29601U 06052A   16058.13382573 -.00000075  00000-0  00000+0 0  9995
2 29601  56.7445   2.3336 0057612  37.0160 323.3817  2.00552160 67984
GPS BIIRM-4 (PRN 15)    
1 32260U 07047A   16057.96093351  .00000029  00000-0  00000+0 0  9996
2 32260  53.3645 236.1564 0079724  26.3883 333.9961  2.00547886 61367
GPS BIIRM-5 (PRN 29)    
1 32384U 07062A   16058.34181553 -.00000029  00000-0  00000+0 0  9996
2 32384  55.9448  62.5460 0011924 319.8347  94.2561  2.00571522 60100
GPS BIIRM-6 (PRN 07)    
1 32711U 08012A   16058.36589309 -.00000037  00000-0  00000+0 0  9998
2 32711  55.4275 300.7799 0091844 207.6380 151.9290  2.00564236 58290
GPS BIIRM-7 (PRN 04)    
1 34661U 09014A   16058.14063409 -.00000076  00000-0  00000+0 0  9994
2 34661  56.3472   0.6941 0080112  48.0250 215.7193  2.00572520 50815
GPS BIIRM-8 (PRN 05)    
1 35752U 09043A   16058.42500544  .00000011  00000-0  00000+0 0  9993
2 35752  54.2244 178.8046 0044753  24.8751  46.7605  2.00555616 47873
GPS BIIF-1  (PRN 25)    
1 36585U 10022A   16058.53505843 -.00000076  00000-0  00000+0 0  9998
2 36585  56.0738 359.4620 0050724  38.3195 221.8874  2.00578499 42129
GPS BIIF-2  (PRN 01)    
1 37753U 11036A   16058.53866858 -.00000015  00000-0  00000+0 0  9991
2 37753  55.2226 119.7590 0049928  23.9592 321.3416  2.00566102 33809
GPS BIIF-3  (PRN 24)    
1 38833U 12053A   16058.04905384 -.00000036  00000-0  00000+0 0  9998
2 38833  54.4598 298.1794 0042213  18.6553 341.5577  2.00568394 24872
GPS BIIF-4  (PRN 27)    
1 39166U 13023A   16057.90830404 -.00000035  00000-0  00000+0 0  9999
2 39166  55.6010  59.1822 0032356   7.7563 352.3159  2.00568500 20385
GPS BIIF-5  (PRN 30)    
1 39533U 14008A   16057.90697942 -.00000043  00000-0  00000+0 0  9998
2 39533  54.6135 303.4016 0017107 179.5697 180.4905  2.00568311 14767
GPS BIIF-6  (PRN 06)    
1 39741U 14026A   16057.68473968 -.00000012  00000-0  00000+0 0  9990
2 39741  55.2134 119.3091 0005621 258.9413 101.0691  2.00567073 13031
GPS BIIF-7  (PRN 09)    
1 40105U 14045A   16058.27737844  .00000035  00000-0  00000+0 0  9993
2 40105  54.7532 239.0276 0004474 121.4036 238.6267  2.00568555 11498
GPS BIIF-8  (PRN 03)    
1 40294U 14068A   16058.14602227  .00000012  00000-0  00000+0 0  9994
2 40294  54.9632 179.4285 0003629 222.8468 137.1091  2.00553593  9719
GPS BIIF-9  (PRN 26)    
1 40534U 15013A   16057.78720906 -.00000080  00000-0  00000+0 0  9992
2 40534  55.0431 359.0688 0009325 342.0653  17.9074  2.00558974  6775
GPS BIIF-10  (PRN 08)   
1 40730U 15033A   16057.44677328 -.00000039  00000-0  00000+0 0  9998
2 40730  55.1374  59.0875 0020439 281.8359  77.9576  2.00566203  4525
GPS BIIF-11  (PRN 10)   
1 41019U 15062A   16058.49717303  .00000013  00000-0  00000+0 0  9996
2 41019  54.9785 179.1795 0012269 204.8021 155.1264  2.00561949  2362
GPS BIIF-12  (PRN 32)   
1 41328U 16007A   16056.55830344  .00000019  00000-0  00000+0 0  9991
2 41328  55.0134 239.1526 0002106 295.7639  65.6023  1.99171406   398
